IRIDIUM 106             
1 41917U 17003A   24321.27261527  .00000297  00000+0  99140-4 0  9991
2 41917  86.3952 330.0433 0002285  82.0159 278.1296 14.34215476410372
IRIDIUM 103             
1 41918U 17003B   24321.12039445  .00000095  00000+0  26769-4 0  9991
2 41918  86.3950 330.0083 0002900  87.6124 272.5403 14.34215773410377
IRIDIUM 109             
1 41919U 17003C   24321.26629077  .00000281  00000+0  93461-4 0  9993
2 41919  86.3956 329.9973 0002403  96.1080 264.0389 14.34211455410364
IRIDIUM 102             
1 41920U 17003D   24321.44386204  .00000263  00000+0  86849-4 0  9999
2 41920  86.3952 329.8588 0002179  92.0255 268.1190 14.34216669410471
IRIDIUM 105             
1 41921U 17003E   24321.48439270  .00000662  00000+0  22930-3 0  9999
2 41921  86.3930 298.2610 0002407  82.9543 277.1926 14.34221558412332
IRIDIUM 104             
1 41922U 17003F   24321.10771284  .00000359  00000+0  12126-3 0  9992
2 41922  86.3953 330.0331 0002655 102.9945 257.1548 14.34216282410410
IRIDIUM 114             
1 41923U 17003G   24321.11404339  .00000119  00000+0  35292-4 0  9992
2 41923  86.3954 330.0162 0002506  89.4533 270.6950 14.34214088410397
IRIDIUM 108             
1 41924U 17003H   24321.42141718  .00000620  00000+0  21416-3 0  9995
2 41924  86.3924 298.2024 0002183  81.6705 278.4738 14.34216925412319
